satname,norad_id,inclination_deg,eccentricity,mean_motion_rev_per_day,perigee_km,apogee_km,l1,l2
STARLINK-1184,45098,53.0556,0.0001035,15.07922889,541.8317601607177,543.2643419662891,1 45098U 20006BG  26016.54715777  .00020757  00000+0  13516-2 0  9990,2 45098  53.0556 120.5033 0001035 355.3155   4.7825 15.07922889329160
STARLINK-1193,45100,53.0538,0.0001669,15.30778202,472.3456694900042,474.6327423175344,1 45100U 20006BJ  26016.58336806  .02051974  00000+0  61291-1 0  9999,2 45100  53.0538 119.3570 0001669  64.6373 299.2895 15.30778202  5793
STARLINK-1143,45179,53.0495,0.0003928,15.51864481,408.61565522642013,413.9494232164325,1 45179U 20012B   26015.79949578  .00087507  00000+0  14280-2 0  9996,2 45179  53.0495 226.3567 0003928 132.1401 227.9943 15.51864481327684
STARLINK-1202,45183,53.0704,0.0002936,15.11004022,531.1075850549732,535.1658849921787,1 45183U 20012F   26016.58336806  .00075365  00000+0  44312-2 0  9991,2 45183  53.0704 280.5043 0002936  76.6341  75.8312 15.11004022  5806
STARLINK-1216,45185,53.0728,0.000275,15.11423084,529.9589324539875,533.7594303537599,1 45185U 20012H   26016.58336806  .00073703  00000+0  42850-2 0  9992,2 45185  53.0728 280.4921 0002750  85.1622 113.3932 15.11423084  5730
STARLINK-1225,45187,53.0552,0.0001351,15.06402631,546.2678808131659,548.1391078147299,1 45187U 20012K   26016.43648870  .00002304  00000+0  17352-3 0  9994,2 45187  53.0552 281.1915 0001351  89.6612 270.4532 15.06402631326952
STARLINK-1230,45189,53.0532,0.0001206,15.06408657,546.3498317708891,548.020219443466,1 45189U 20012M   26016.44017529  .00005038  00000+0  35676-3 0  9994,2 45189  53.0532 281.1768 0001206  91.5728 268.5399 15.06408657324183
STARLINK-1234,45190,53.0468,0.0014749,15.50315658,405.78332522636265,425.8240915279339,1 45190U 20012N   26015.98827095  .00079662  00000+0  13704-2 0  9992,2 45190  53.0468 220.5616 0014749 126.2004 234.0371 15.50315658327673
STARLINK-1269,45197,53.0563,0.0001353,15.06950055,544.5894597644437,546.4630030348599,1 45197U 20012V   26016.45086858  .00116928  00000+0  76256-2 0  9994,2 45197  53.0563 281.1249 0001353 107.6418 252.4720 15.06950055326937
STARLINK-1154,45198,53.0522,0.0001517,15.37719015,451.81991429072514,453.8924376203104,1 45198U 20012W   26016.58336806  .00087946  00000+0  23228-2 0  9998,2 45198  53.0522 257.0005 0001517  92.9895 327.0811 15.37719015  5838
STARLINK-1199,45201,53.0545,0.0001432,15.06397379,546.2278798736088,548.211302001253,1 45201U 20012Z   26016.38673073  .00001210  00000+0  10012-3 0  9999,2 45201  53.0545 261.4157 0001432  93.3196 266.7957 15.06397379327232
STARLINK-1209,45206,53.0486,0.0014956,15.42321998,429.0621382410636,449.4543308666616,1 45206U 20012AE  26016.57970783  .00070189  00000+0  15929-2 0  9995,2 45206  53.0486 222.1047 0014956 123.8468 236.3963 15.42321998326850
STARLINK-1210,45207,53.0147,0.000539,15.80807111,324.54228742589294,331.7716723362055,1 45207U 20012AF  26016.58336806  .00086196  00000+0  43681-3 0  9991,2 45207  53.0147 166.4366 0005390 291.7461  54.5810 15.80807111  6022
STARLINK-1231,45212,53.0478,0.0002339,15.17207565,512.6725717091849,515.8968465847247,1 45212U 20012AL  26016.37000377  .00022509  00000+0  11308-2 0  9993,2 45212  53.0478 255.2809 0002339 125.6968 234.4243 15.17207565327270
STARLINK-1271,45217,53.0544,0.0001525,15.06407609,546.1321254486102,548.2443496460619,1 45217U 20012AR  26016.63736909  .00003042  00000+0  22297-3 0  9995,2 45217  53.0544 260.2902 0001525  90.1022 270.0142 15.06407609327275
STARLINK-1191,45222,53.0788,8.34e-05,15.13294851,525.58428833582,526.7359250932195,1 45222U 20012AW  26016.58336806  .00065835  00000+0  36392-2 0  9995,2 45222  53.0788 240.4589 0000834  65.1653 351.3718 15.13294851  5430
STARLINK-1212,45223,53.0526,0.0002222,15.39695927,445.4912169369336,448.52431127010095,1 45223U 20012AX  26016.63861089  .00068317  00000+0  16982-2 0  9999,2 45223  53.0526 237.8534 0002222  90.1901 269.9357 15.39695927327592
STARLINK-1215,45225,53.1186,7.63e-05,15.22039573,499.16465408863496,500.214210402195,1 45225U 20012AZ  26016.58336806  .00113302  00000+0  48328-2 0  9993,2 45225  53.1186 240.1150 0000763  89.0713 298.5503 15.22039573  5791
STARLINK-1221,45227,53.0661,0.0003757,15.39683822,444.47931660478844,449.60775726023985,1 45227U 20012BB  26016.37395402  .00009320  00000+0  24217-3 0  9995,2 45227  53.0661 157.1245 0003757 181.9225 178.1765 15.39683822328643
STARLINK-1222,45228,53.0555,0.0002028,15.43456283,434.5358688515789,437.29964946189284,1 45228U 20012BC  26016.62889773  .00011181  00000+0  25479-3 0  9992,2 45228  53.0555 231.6279 0002028 113.0653 247.0566 15.43456283327561
STARLINK-1226,45229,53.0879,0.0002315,15.15494282,517.8815720860039,521.0751680023341,1 45229U 20012BD  26016.58336806  .00105249  00000+0  54293-2 0  9996,2 45229  53.0879 240.4041 0002315 123.2224 124.4045 15.15494282  5835
STARLINK-1227,45230,53.082,0.0002242,15.13792846,523.0982075544534,526.1934153671118,1 45230U 20012BE  26016.58336806  .00068023  00000+0  37063-2 0  9992,2 45230  53.0820 240.4090 0002242  94.4570 170.7140 15.13792846  5834
STARLINK-1246,45235,53.086,0.0002125,15.14095263,522.2599857730138,525.1932778165256,1 45235U 20012BK  26016.58336806  .00078081  00000+0  42101-2 0  9991,2 45235  53.0860 280.3544 0002125  82.3184 132.7457 15.14095263  5803
STARLINK-1270,45237,53.0502,0.0003339,15.38940887,446.96030303829684,451.5196253749946,1 45237U 20012BM  26016.62733654  .00062588  00000+0  15967-2 0  9995,2 45237  53.0502 234.6635 0003339 118.6391 241.4948 15.38940887327630
STARLINK-1279,45360,53.0497,0.0005908,15.46511257,422.9207188574901,430.96159921020444,1 45360U 20019A   26016.21457830  .00120919  00000+0  23669-2 0  9994,2 45360  53.0497 351.2700 0005908  28.3388 331.7939 15.46511257322526
STARLINK-1301,45361,53.0495,0.0008169,15.51956464,405.4682105599268,416.56032590196173,1 45361U 20019B   26016.58997248  .00141790  00000+0  22837-2 0  9993,2 45361  53.0495 357.3218 0008169  21.0606 339.0738 15.51956464322483
STARLINK-1262,45366,53.0554,0.0001431,15.06407393,546.1978854145063,548.1799136869577,1 45366U 20019G   26016.34435059  .00003677  00000+0  26559-3 0  9996,2 45366  53.0554  41.6052 0001431  82.5334 277.5818 15.06407393321844
STARLINK-1273,45367,53.0565,0.0001432,15.14205582,522.4031006235964,524.3796983572092,1 45367U 20019H   26016.32279280  .00003009  00000+0  17924-3 0  9992,2 45367  53.0565  41.2441 0001432  83.9479 276.1677 15.14205582321844
STARLINK-1276,45368,53.0549,0.0001456,15.06403354,546.1929491770752,548.2096076837533,1 45368U 20019J   26016.07158309  .00000498  00000+0  52352-4 0  9997,2 45368  53.0549  42.8312 0001456  85.7058 274.4098 15.06403354321802
STARLINK-1277,45369,53.0526,0.0001471,15.27875139,481.15633546704703,483.174636458416,1 45369U 20019K   26016.58336806  .00906220  00000+0  30479-1 0  9995,2 45369  53.0526  40.2227 0001471  59.9508   0.0389 15.27875139  5829
STARLINK-1281,45370,53.0539,0.000144,15.0641511,546.1680048278449,548.1624918753705,1 45370U 20019L   26016.45860072  .00002267  00000+0  17096-3 0  9990,2 45370  53.0539  41.0952 0001440  77.8847 282.2303 15.06415110321861
STARLINK-1300,45374,53.0555,0.0001527,15.06396323,546.1653249909659,548.2803298822637,1 45374U 20019Q   26016.34801900  .00001327  00000+0  10797-3 0  9994,2 45374  53.0555  41.5890 0001527  91.2998 268.8166 15.06396323321841
STARLINK-1302,45375,53.0554,0.0001405,15.31040706,471.7434781070515,473.6685649961082,1 45375U 20019R   26016.58336806  .00026633  00000+0  88477-3 0  9996,2 45375  53.0554  39.4382 0001405  88.5447 233.7064 15.31040706  5831
STARLINK-1304,45376,53.0555,0.0001589,15.39793071,445.63623017275404,447.8051699498328,1 45376U 20019S   26016.33954245  .00077750  00000+0  19228-2 0  9996,2 45376  53.0555  38.3758 0001589  61.9756 298.1408 15.39793071321880
STARLINK-1305,45377,53.0501,0.0004626,15.43889367,431.49181134770606,437.7949957770825,1 45377U 20019T   26016.21858332  .00086325  00000+0  18591-2 0  9994,2 45377  53.0501  23.2738 0004626 356.3152   3.7818 15.43889367322097
STARLINK-1319,45379,53.052,0.0004951,15.47792369,419.8182514158534,426.5529210407358,1 45379U 20019V   26016.27330485  .00105946  00000+0  19891-2 0  9991,2 45379  53.0520  22.9551 0004951 351.4426   8.6496 15.47792369322107
STARLINK-1266,45383,53.0553,0.0001462,15.27736887,481.5763233924981,483.582396856199,1 45383U 20019Z   26016.58336806  .01030457  00000+0  34437-1 0  9990,2 45383  53.0553  19.6790 0001462  74.7857 273.8159 15.27736887  5823
STARLINK-1267,45384,53.0546,0.0005221,15.40095343,442.2648764375663,449.39046034429884,1 45384U 20019AA  26016.28728132  .00074035  00000+0  18136-2 0  9993,2 45384  53.0546  16.5522 0005221  49.0576 311.0879 15.40095343322180
STARLINK-1272,45386,53.0507,0.0005871,15.45397033,426.21453748994463,434.20890055582095,1 45386U 20019AC  26016.60147207  .00116533  00000+0  23715-2 0  9998,2 45386  53.0507   0.1068 0005871   4.2257 355.8797 15.45397033322443
STARLINK-1274,45387,53.0336,0.0008451,15.39551863,441.66524436990676,453.2018236865215,1 45387U 20019AD  26016.33589285  .00042578  00000+0  10697-2 0  9997,2 45387  53.0336 351.7813 0008451  56.6786 303.5025 15.39551863322532
STARLINK-1280,45388,53.049,0.000487,15.53378174,403.5668797527487,410.1754777188371,1 45388U 20019AE  26016.23824238  .00127407  00000+0  19554-2 0  9993,2 45388  53.0490  17.9201 0004870 353.2851   6.8092 15.53378174322159
STARLINK-1283,45389,53.0501,0.0010037,15.45324683,423.59046955080976,437.2579753487562,1 45389U 20019AF  26016.58336806  .00062341  00000+0  12833-2 0  9999,2 45389  53.0501   0.3223 0010037  51.5694 315.6381 15.45324683  5830
STARLINK-1284,45390,53.053,0.000168,15.30280375,473.8237718291384,476.1264174929438,1 45390U 20019AG  26016.58336806  .01943998  00000+0  59292-1 0  9997,2 45390  53.0530  19.5482 0001680  81.1700 315.5330 15.30280375  5829
